STARLINK-1612
1 16164C 20057AZ  21326.07033377 -.00013349  00000-0 -89429-3 0  3260
2 16164  53.0517 118.4320 0001478  77.1797 176.7782 15.06415281    13
